STARLINK-31628          
1 59342U 24057Y   26068.33757157  .00000281  00000+0  19748-4 0  9994
2 59342  43.0018 189.1939 0001615 264.7725  95.2943 15.27576972109785
OTTER                   
1 62623U 25009Q   26068.72300813  .00012198  00000+0  45151-3 0  9990
2 62623  97.4065 151.3812 0003573 310.7710  49.3219 15.27809545 63722
